[{"OBJECT_NAME":"STARLINK-37228","OBJECT_ID":"2026-070AE","EPOCH":"2026-04-13T06:00:02.000160","MEAN_MOTION":15.86940565,"ECCENTRICITY":8.94e-5,"INCLINATION":53.1596,"RA_OF_ASC_NODE":211.4065,"ARG_OF_PERICENTER":83.6326,"MEAN_ANOMALY":16.18,"EPHEMERIS_TYPE":0,"CLASSIFICATION_TYPE":"U","NORAD_CAT_ID":68570,"ELEMENT_SET_NO":999,"REV_AT_EPOCH":293,"BSTAR":-0.0070867179,"MEAN_MOTION_DOT":-0.01633218,"MEAN_MOTION_DDOT":0},{"OBJECT_NAME":"MERIDIAN-M 21L","OBJECT_ID":"2026-071A","EPOCH":"2026-04-12T09:12:45.756288","MEAN_MOTION":1.98598258,"ECCENTRICITY":0.72361918,"INCLINATION":62.7821,"RA_OF_ASC_NODE":237.6139,"ARG_OF_PERICENTER":284.9856,"MEAN_ANOMALY":10.8166,"EPHEMERIS_TYPE":0,"CLASSIFICATION_TYPE":"U","NORAD_CAT_ID":68571,"ELEMENT_SET_NO":999,"REV_AT_EPOCH":19,"BSTAR":0.019331471,"MEAN_MOTION_DOT":1.94e-6,"MEAN_MOTION_DDOT":0},{"OBJECT_NAME":"FREGAT R/B","OBJECT_ID":"2026-071B","EPOCH":"2026-04-03T07:42:42.175872","MEAN_MOTION":2.01041412,"ECCENTRICITY":0.73138199,"INCLINATION":63.0589,"RA_OF_ASC_NODE":237.9448,"ARG_OF_PERICENTER":284.9724,"MEAN_ANOMALY":10.3188,"EPHEMERIS_TYPE":0,"CLASSIFICATION_TYPE":"U","NORAD_CAT_ID":68572,"ELEMENT_SET_NO":999,"REV_AT_EPOCH":1,"BSTAR":0.00035051942,"MEAN_MOTION_DOT":-1.541e-5,"MEAN_MOTION_DDOT":0},{"OBJECT_NAME":"KUIPER-00131","OBJECT_ID":"2026-072A","EPOCH":"2026-04-13T06:00:02.000160","MEAN_MOTION":15.37112269,"ECCENTRICITY":0.00068308,"INCLINATION":51.8699,"RA_OF_ASC_NODE":130.9933,"ARG_OF_PERICENTER":134.7633,"MEAN_ANOMALY":85.6999,"EPHEMERIS_TYPE":0,"CLASSIFICATION_TYPE":"U","NORAD_CAT_ID":68573,"ELEMENT_SET_NO":999,"REV_AT_EPOCH":231,"BSTAR":-0.00015804155,"MEAN_MOTION_DOT":-6.224e-5,"MEAN_MOTION_DDOT":0},{"OBJECT_NAME":"KUIPER-00189","OBJECT_ID":"2026-072B","EPOCH":"2026-04-13T06:00:02.000160","MEAN_MOTION":15.36485384,"ECCENTRICITY":0.00014763,"INCLINATION":51.8775,"RA_OF_ASC_NODE":130.9108,"ARG_OF_PERICENTER":66.4697,"MEAN_ANOMALY":187.8485,"EPHEMERIS_TYPE":0,"CLASSIFICATION_TYPE":"U","NORAD_CAT_ID":68574,"ELEMENT_SET_NO":999,"REV_AT_EPOCH":188,"BSTAR":-0.00050375853,"MEAN_MOTION_DOT":-0.00018555,"MEAN_MOTION_DDOT":0},{"OBJECT_NAME":"KUIPER-00192","OBJECT_ID":"2026-072C","EPOCH":"2026-04-13T06:00:02.000160","MEAN_MOTION":15.37578447,"ECCENTRICITY":0.00051654,"INCLINATION":51.8751,"RA_OF_ASC_NODE":130.9591,"ARG_OF_PERICENTER":125.0308,"MEAN_ANOMALY":110.4158,"EPHEMERIS_TYPE":0,"CLASSIFICATION_TYPE":"U","NORAD_CAT_ID":68575,"ELEMENT_SET_NO":999,"REV_AT_EPOCH":130,"BSTAR":-0.00046440519,"MEAN_MOTION_DOT":-0.00017756,"MEAN_MOTION_DDOT":0},{"OBJECT_NAME":"KUIPER-00193","OBJECT_ID":"2026-072D","EPOCH":"2026-04-13T06:00:02.000160","MEAN_MOTION":15.37614341,"ECCENTRICITY":0.00034279,"INCLINATION":51.8754,"RA_OF_ASC_NODE":130.9442,"ARG_OF_PERICENTER":112.7897,"MEAN_ANOMALY":129.5254,"EPHEMERIS_TYPE":0,"CLASSIFICATION_TYPE":"U","NORAD_CAT_ID":68576,"ELEMENT_SET_NO":999,"REV_AT_EPOCH":130,"BSTAR":-0.00046911471,"MEAN_MOTION_DOT":-0.00017946,"MEAN_MOTION_DDOT":0},{"OBJECT_NAME":"KUIPER-00194","OBJECT_ID":"2026-072E","EPOCH":"2026-04-13T06:00:02.000160","MEAN_MOTION":15.38117591,"ECCENTRICITY":0.00028356,"INCLINATION":51.8766,"RA_OF_ASC_NODE":130.9158,"ARG_OF_PERICENTER":105.6863,"MEAN_ANOMALY":148.7409,"EPHEMERIS_TYPE":0,"CLASSIFICATION_TYPE":"U","NORAD_CAT_ID":68577,"ELEMENT_SET_NO":999,"REV_AT_EPOCH":212,"BSTAR":-0.00044144086,"MEAN_MOTION_DOT":-0.00017185,"MEAN_MOTION_DDOT":0},{"OBJECT_NAME":"KUIPER-00229","OBJECT_ID":"2026-072F","EPOCH":"2026-04-13T06:00:02.000160","MEAN_MOTION":15.3687798,"ECCENTRICITY":0.00076779,"INCLINATION":51.8709,"RA_OF_ASC_NODE":131.0032,"ARG_OF_PERICENTER":131.033,"MEAN_ANOMALY":84.3895,"EPHEMERIS_TYPE":0,"CLASSIFICATION_TYPE":"U","NORAD_CAT_ID":68578,"ELEMENT_SET_NO":999,"REV_AT_EPOCH":243,"BSTAR":-0.00049917451,"MEAN_MOTION_DOT":-0.00018644,"MEAN_MOTION_DDOT":0},{"OBJECT_NAME":"KUIPER-00230","OBJECT_ID":"2026-072G","EPOCH":"2026-04-13T06:00:02.000160","MEAN_MOTION":15.38479745,"ECCENTRICITY":0.00015073,"INCLINATION":51.8767,"RA_OF_ASC_NODE":130.8861,"ARG_OF_PERICENTER":98.7879,"MEAN_ANOMALY":168.7321,"EPHEMERIS_TYPE":0,"CLASSIFICATION_TYPE":"U","NORAD_CAT_ID":68579,"ELEMENT_SET_NO":999,"REV_AT_EPOCH":130,"BSTAR":-0.00045090221,"MEAN_MOTION_DOT":-0.00017746,"MEAN_MOTION_DDOT":0},{"OBJECT_NAME":"KUIPER-00231","OBJECT_ID":"2026-072H","EPOCH":"2026-04-13T06:00:02.000160","MEAN_MOTION":15.37933042,"ECCENTRICITY":0.00028484,"INCLINATION":51.8749,"RA_OF_ASC_NODE":130.9289,"ARG_OF_PERICENTER":112.1832,"MEAN_ANOMALY":138.356,"EPHEMERIS_TYPE":0,"CLASSIFICATION_TYPE":"U","NORAD_CAT_ID":68580,"ELEMENT_SET_NO":999,"REV_AT_EPOCH":130,"BSTAR":-0.00044023193,"MEAN_MOTION_DOT":-0.00017038,"MEAN_MOTION_DDOT":0},{"OBJECT_NAME":"KUIPER-00234","OBJECT_ID":"2026-072J","EPOCH":"2026-04-13T06:00:02.000160","MEAN_MOTION":15.38360878,"ECCENTRICITY":0.00023571,"INCLINATION":51.8759,"RA_OF_ASC_NODE":130.9064,"ARG_OF_PERICENTER":98.9823,"MEAN_ANOMALY":161.6977,"EPHEMERIS_TYPE":0,"CLASSIFICATION_TYPE":"U","NORAD_CAT_ID":68581,"ELEMENT_SET_NO":999,"REV_AT_EPOCH":130,"BSTAR":-0.00044372131,"MEAN_MOTION_DOT":-0.00017406,"MEAN_MOTION_DDOT":0},{"OBJECT_NAME":"KUIPER-00236","OBJECT_ID":"2026-072K","EPOCH":"2026-04-13T06:00:02.000160","MEAN_MOTION":15.38263351,"ECCENTRICITY":0.00027972,"INCLINATION":51.8762,"RA_OF_ASC_NODE":130.9076,"ARG_OF_PERICENTER":102.9823,"MEAN_ANOMALY":156.238,"EPHEMERIS_TYPE":0,"CLASSIFICATION_TYPE":"U","NORAD_CAT_ID":68582,"ELEMENT_SET_NO":999,"REV_AT_EPOCH":130,"BSTAR":-0.00044431155,"MEAN_MOTION_DOT":-0.00017375,"MEAN_MOTION_DDOT":0},{"OBJECT_NAME":"KUIPER-00244","OBJECT_ID":"2026-072L","EPOCH":"2026-04-13T06:00:02.000160","MEAN_MOTION":15.37879147,"ECCENTRICITY":0.00041197,"INCLINATION":51.876,"RA_OF_ASC_NODE":130.9363,"ARG_OF_PERICENTER":124.361,"MEAN_ANOMALY":121.2388,"EPHEMERIS_TYPE":0,"CLASSIFICATION_TYPE":"U","NORAD_CAT_ID":68583,"ELEMENT_SET_NO":999,"REV_AT_EPOCH":260,"BSTAR":-0.00043663383,"MEAN_MOTION_DOT":-0.00016877,"MEAN_MOTION_DDOT":0},{"OBJECT_NAME":"KUIPER-00253","OBJECT_ID":"2026-072M","EPOCH":"2026-04-13T06:00:02.000160","MEAN_MOTION":15.37476567,"ECCENTRICITY":0.00056589,"INCLINATION":51.8718,"RA_OF_ASC_NODE":130.9692,"ARG_OF_PERICENTER":131.8642,"MEAN_ANOMALY":100.1558,"EPHEMERIS_TYPE":0,"CLASSIFICATION_TYPE":"U","NORAD_CAT_ID":68584,"ELEMENT_SET_NO":999,"REV_AT_EPOCH":248,"BSTAR":-0.00048213417,"MEAN_MOTION_DOT":-0.00018359,"MEAN_MOTION_DDOT":0},{"OBJECT_NAME":"KUIPER-00254","OBJECT_ID":"2026-072N","EPOCH":"2026-04-13T06:00:02.000160","MEAN_MOTION":15.3687756,"ECCENTRICITY":0.00077785,"INCLINATION":51.872,"RA_OF_ASC_NODE":131.0066,"ARG_OF_PERICENTER":137.5807,"MEAN_ANOMALY":76.0051,"EPHEMERIS_TYPE":0,"CLASSIFICATION_TYPE":"U","NORAD_CAT_ID":68585,"ELEMENT_SET_NO":999,"REV_AT_EPOCH":130,"BSTAR":-0.00051821589,"MEAN_MOTION_DOT":-0.00019339,"MEAN_MOTION_DDOT":0}]
