STARLINK-37228
1 68570U 26103.25002315  1.63322-2 7.08672-3 0 0                     
2 68570  53.1596 211.4065 0000894  83.6326  16.1800 15.86940565      
MERIDIAN-M 21L
1 68571U 26102.38385417  1.94000-6 1.93315-2 0 0                     
2 68571  62.7821 237.6139 7236191 284.9856  10.8166  1.98598258      
KUIPER-00131
1 68573U 26103.25002315  6.22400-5 1.58042-4 0 0                     
2 68573  51.8699 130.9933 0006830 134.7633  85.6999 15.37112269      
KUIPER-00189
1 68574U 26103.25002315  1.85550-4 5.03759-4 0 0                     
2 68574  51.8775 130.9108 0001476  66.4697 187.8485 15.36485384      
KUIPER-00192
1 68575U 26103.25002315  1.77560-4 4.64405-4 0 0                     
2 68575  51.8751 130.9591 0005165 125.0308 110.4158 15.37578447      
KUIPER-00193
1 68576U 26103.25002315  1.79460-4 4.69115-4 0 0                     
2 68576  51.8754 130.9442 0003427 112.7897 129.5254 15.37614341      
KUIPER-00194
1 68577U 26103.25002315  1.71850-4 4.41441-4 0 0                     
2 68577  51.8766 130.9158 0002835 105.6863 148.7409 15.38117591      
KUIPER-00229
1 68578U 26103.25002315  1.86440-4 4.99175-4 0 0                     
2 68578  51.8709 131.0032 0007677 131.0330  84.3895 15.36877980      
KUIPER-00230
1 68579U 26103.25002315  1.77460-4 4.50902-4 0 0                     
2 68579  51.8767 130.8861 0001507  98.7879 168.7321 15.38479745      
KUIPER-00231
1 68580U 26103.25002315  1.70380-4 4.40232-4 0 0                     
2 68580  51.8749 130.9289 0002848 112.1832 138.3560 15.37933042      
KUIPER-00234
1 68581U 26103.25002315  1.74060-4 4.43721-4 0 0                     
2 68581  51.8759 130.9064 0002357  98.9823 161.6977 15.38360878      
KUIPER-00236
1 68582U 26103.25002315  1.73750-4 4.44312-4 0 0                     
2 68582  51.8762 130.9076 0002797 102.9823 156.2380 15.38263351      
KUIPER-00244
1 68583U 26103.25002315  1.68770-4 4.36634-4 0 0                     
2 68583  51.8760 130.9363 0004119 124.3610 121.2388 15.37879147      
KUIPER-00253
1 68584U 26103.25002315  1.83590-4 4.82134-4 0 0                     
2 68584  51.8718 130.9692 0005658 131.8642 100.1558 15.37476567      
KUIPER-00254
1 68585U 26103.25002315  1.93390-4 5.18216-4 0 0                     
2 68585  51.8720 131.0066 0007778 137.5807  76.0051 15.36877560      
FREGAT R/B
1 68572U 26093.32131944  1.54100-5 3.50519-4 0 0                     
2 68572  63.0589 237.9448 7313819 284.9724  10.3188  2.01041412      
